NORAD_CAT_ID,OBJECT_NAME,OBJECT_TYPE,EPOCH,MEAN_MOTION,ECCENTRICITY,INCLINATION,RA_OF_ASC_NODE,ARG_OF_PERICENTER,MEAN_ANOMALY,BSTAR,MEAN_MOTION_DOT,MEAN_MOTION_DDOT,TLE_LINE0,TLE_LINE1,TLE_LINE2,SEMIMAJOR_AXIS,PERIOD,APOGEE,PERIGEE,DECAYED
52349.0,STARLINK-3819,PAYLOAD,2023-08-31 23:22:34,15.08803449,0.0001052,53.2194,12.3797,90.1383,269.973,-0.00041488,-6.878e-05,0.0,0 STARLINK-3819,1 52349U 22045U   23243.97401357 -.00006878  00000-0 -41488-3 0  9995,2 52349  53.2194  12.3797 0001052  90.1383 269.9730 15.08803449 76786,6917.992,95.44,540.585,539.129,0.0
52349.0,STARLINK-3819,PAYLOAD,2023-09-01 08:54:53,15.08850672,0.0001193,53.2208,10.5967,77.4094,282.7032,0.00091288,0.00014275,0.0,0 STARLINK-3819,1 52349U 22045U   23244.37144751  .00014275  00000-0  91288-3 0  9993,2 52349  53.2208  10.5967 0001193  77.4094 282.7032 15.08850672 76849,6917.848,95.437,540.538,538.887,0.0
52349.0,STARLINK-3819,PAYLOAD,2023-09-01 18:27:11,15.08853884,9.59e-05,53.2183,8.8065,88.8464,271.2638,0.00072397,0.00011257,0.0,0 STARLINK-3819,1 52349U 22045U   23244.76888577  .00011257  00000-0  72397-3 0  9994,2 52349  53.2183   8.8065 0000959  88.8464 271.2638 15.08853884 76906,6917.838,95.437,540.366,539.04,0.0
52349.0,STARLINK-3819,PAYLOAD,2023-09-02 08:45:40,15.08840106,0.0001502,53.2152,6.1314,89.9531,270.1633,0.00020889,3.038e-05,0.0,0 STARLINK-3819,1 52349U 22045U   23245.36505108  .00003038  00000-0  20889-3 0  9994,2 52349  53.2152   6.1314 0001502  89.9531 270.1633 15.08840106 76997,6917.88,95.438,540.784,538.706,0.0
52349.0,STARLINK-3819,PAYLOAD,2023-09-02 13:31:49,15.08843895,0.0001211,53.217,5.2375,96.7452,263.3678,0.00027211,4.046e-05,0.0,0 STARLINK-3819,1 52349U 22045U   23245.56376878  .00004046  00000-0  27211-3 0  9992,2 52349  53.2170   5.2375 0001211  96.7452 263.3678 15.08843895 77025,6917.868,95.437,540.571,538.896,0.0
52349.0,STARLINK-3819,PAYLOAD,2023-09-02 18:17:58,15.088572,0.0001078,53.2165,4.3458,85.4661,274.6454,0.0007202,0.00011198,0.0,0 STARLINK-3819,1 52349U 22045U   23245.76248648  .00011198  00000-0  72020-3 0  9991,2 52349  53.2165   4.3458 0001078  85.4661 274.6454 15.08857200 77054,6917.828,95.436,540.439,538.947,0.0
52349.0,STARLINK-3819,PAYLOAD,2023-09-03 08:36:27,15.08844462,0.0001625,53.2169,1.6714,97.8653,262.2524,0.00019595,2.832e-05,0.0,0 STARLINK-3819,1 52349U 22045U   23246.35864834  .00002832  00000-0  19595-3 0  9991,2 52349  53.2169   1.6714 0001625  97.8653 262.2524 15.08844462 77146,6917.867,95.437,540.856,538.608,0.0
52349.0,STARLINK-3819,PAYLOAD,2023-09-04 00:30:18,15.08835909,0.0001166,53.2164,358.6994,99.4563,260.6561,0.00019949,2.888e-05,0.0,0 STARLINK-3819,1 52349U 22045U   23247.02105079  .00002888  00000-0  19949-3 0  9999,2 52349  53.2164 358.6994 0001166  99.4563 260.6561 15.08835909 77244,6917.893,95.438,540.565,538.951,0.0
52349.0,STARLINK-3819,PAYLOAD,2023-09-04 10:02:38,15.08824755,0.0001288,53.2168,356.9139,100.224,259.8898,-0.00023956,-4.097e-05,0.0,0 STARLINK-3819,1 52349U 22045U   23247.41849668 -.00004097  00000-0 -23956-3 0  9990,2 52349  53.2168 356.9139 0001288 100.2240 259.8898 15.08824755 77305,6917.927,95.439,540.683,538.901,0.0
52349.0,STARLINK-3819,PAYLOAD,2023-09-04 16:24:10,15.08828784,0.0001594,53.2164,355.7221,91.9119,268.2056,-8.3332e-05,-1.614e-05,0.0,0 STARLINK-3819,1 52349U 22045U   23247.68345933 -.00001614  00000-0 -83332-4 0  9992,2 52349  53.2164 355.7221 0001594  91.9119 268.2056 15.08828784 77341,6917.915,95.438,540.882,538.677,0.0
52349.0,STARLINK-3819,PAYLOAD,2023-09-05 08:18:02,15.0883746,0.0001316,53.2174,352.7506,94.3773,265.737,0.0002518,3.721e-05,0.0,0 STARLINK-3819,1 52349U 22045U   23248.34585890  .00003721  00000-0  25180-3 0  9999,2 52349  53.2174 352.7506 0001316  94.3773 265.7370 15.08837460 77443,6917.888,95.438,540.664,538.843,0.0
52349.0,STARLINK-3819,PAYLOAD,2023-09-06 06:33:25,15.08846403,0.0001242,53.2175,348.5866,96.3955,263.7179,0.00036358,5.504e-05,0.0,0 STARLINK-3819,1 52349U 22045U   23249.27321549  .00005504  00000-0  36358-3 0  9991,2 52349  53.2175 348.5866 0001242  96.3955 263.7179 15.08846403 77585,6917.861,95.437,540.585,538.867,0.0
52349.0,STARLINK-3819,PAYLOAD,2023-09-07 00:02:40,15.0884719,0.00012,53.2181,345.3129,115.5598,244.5519,5.2677e-05,5.51e-06,0.0,0 STARLINK-3819,1 52349U 22045U   23250.00185349  .00000551  00000-0  52677-4 0  9990,2 52349  53.2181 345.3129 0001200 115.5598 244.5519 15.08847190 77691,6917.858,95.437,540.554,538.893,0.0
52349.0,STARLINK-3819,PAYLOAD,2023-09-07 09:34:59,15.08845161,0.0001447,53.2163,343.5299,99.4762,260.6393,3.9673e-05,3.44e-06,0.0,0 STARLINK-3819,1 52349U 22045U   23250.39929605  .00000344  00000-0  39673-4 0  9994,2 52349  53.2163 343.5299 0001447  99.4762 260.6393 15.08845161 77757,6917.865,95.437,540.731,538.729,0.0
52349.0,STARLINK-3819,PAYLOAD,2023-09-07 23:53:27,15.08843687,0.0001415,53.2168,340.8538,103.3764,256.7386,4.6293e-05,4.49e-06,0.0,0 STARLINK-3819,1 52349U 22045U   23250.99545646  .00000449  00000-0  46293-4 0  9991,2 52349  53.2168 340.8538 0001415 103.3764 256.7386 15.08843687 77849,6917.869,95.437,540.713,538.755,0.0
52349.0,STARLINK-3819,PAYLOAD,2023-09-08 12:36:32,15.08843981,0.0001413,53.218,338.4753,101.4318,258.6833,9.037e-05,1.151e-05,0.0,0 STARLINK-3819,1 52349U 22045U   23251.52537562  .00001151  00000-0  90370-4 0  9995,2 52349  53.2180 338.4753 0001413 101.4318 258.6833 15.08843981 77921,6917.868,95.437,540.711,538.756,0.0
52349.0,STARLINK-3819,PAYLOAD,2023-09-09 10:51:56,15.08836837,0.0001392,53.2179,334.3128,96.3558,263.7593,6.3362e-05,7.21e-06,0.0,0 STARLINK-3819,1 52349U 22045U   23252.45274150  .00000721  00000-0  63362-4 0  9992,2 52349  53.2179 334.3128 0001392  96.3558 263.7593 15.08836837 78062,6917.89,95.438,540.718,538.792,0.0
52349.0,STARLINK-3819,PAYLOAD,2023-09-09 12:27:19,15.0884022,0.0001356,53.2178,334.0164,93.482,266.6327,8.5792e-05,1.078e-05,0.0,0 STARLINK-3819,1 52349U 22045U   23252.51897930  .00001078  00000-0  85792-4 0  9993,2 52349  53.2178 334.0164 0001356  93.4820 266.6327 15.08840220 78077,6917.88,95.438,540.683,538.807,0.0
52349.0,STARLINK-3819,PAYLOAD,2023-09-10 10:42:43,15.08843206,0.0001413,53.2179,329.8533,92.1545,267.9608,8.8788e-05,1.126e-05,0.0,0 STARLINK-3819,1 52349U 22045U   23253.44633810  .00001126  00000-0  88788-4 0  9993,2 52349  53.2179 329.8533 0001413  92.1545 267.9608 15.08843206 78213,6917.871,95.437,540.713,538.758,0.0
52349.0,STARLINK-3819,PAYLOAD,2023-09-10 21:50:25,15.08843448,0.000133,53.2179,327.7721,91.2997,268.8148,0.00012463,1.696e-05,0.0,0 STARLINK-3819,1 52349U 22045U   23253.91001681  .00001696  00000-0  12463-3 0  9998,2 52349  53.2179 327.7721 0001330  91.2997 268.8148 15.08843448 78282,6917.87,95.437,540.655,538.815,0.0
52349.0,STARLINK-3819,PAYLOAD,2023-09-11 10:33:31,15.08829337,0.0001758,53.2199,325.3949,94.0933,266.026,7.3144e-05,8.76e-06,0.0,0 STARLINK-3819,1 52349U 22045U   23254.43994930  .00000876  00000-0  73144-4 0  9997,2 52349  53.2199 325.3949 0001758  94.0933 266.0260 15.08829337 78360,6917.913,95.438,540.994,538.562,0.0
52349.0,STARLINK-3819,PAYLOAD,2023-09-11 12:08:54,15.08838004,0.0001328,53.2176,325.0961,89.4132,270.7013,5.8803e-05,6.48e-06,0.0,0 STARLINK-3819,1 52349U 22045U   23254.50618369  .00000648  00000-0  58803-4 0  9996,2 52349  53.2176 325.0961 0001328  89.4132 270.7013 15.08838004 78378,6917.886,95.438,540.67,538.833,0.0
52349.0,STARLINK-3819,PAYLOAD,2023-09-12 11:59:40,15.08850089,0.0001438,53.2184,320.6364,99.102,261.0135,0.00012806,1.751e-05,0.0,0 STARLINK-3819,1 52349U 22045U   23255.49977608  .00001751  00000-0  12806-3 0  9997,2 52349  53.2184 320.6364 0001438  99.1020 261.0135 15.08850089 78523,6917.85,95.437,540.709,538.72,0.0
52349.0,STARLINK-3819,PAYLOAD,2023-09-13 10:15:04,15.0884979,0.0001471,53.2176,316.4731,86.3167,273.7994,0.00023721,3.49e-05,0.0,0 STARLINK-3819,1 52349U 22045U   23256.42713652  .00003490  00000-0  23721-3 0  9998,2 52349  53.2176 316.4731 0001471  86.3167 273.7994 15.08849790 78667,6917.85,95.437,540.733,538.698,0.0
52349.0,STARLINK-3819,PAYLOAD,2023-09-13 11:50:27,15.0885426,0.0001436,53.2173,316.1755,87.7406,272.375,0.00027136,4.035e-05,0.0,0 STARLINK-3819,1 52349U 22045U   23256.49337329  .00004035  00000-0  27136-3 0  9998,2 52349  53.2173 316.1755 0001436  87.7406 272.3750 15.08854260 78673,6917.837,95.437,540.695,538.708,0.0
52349.0,STARLINK-3819,PAYLOAD,2023-09-13 21:22:47,15.08835279,0.0001694,53.2175,314.3915,75.1183,284.9997,-2.5958e-05,-7.01e-06,0.0,0 STARLINK-3819,1 52349U 22045U   23256.89082432 -.00000701  00000-0 -25958-4 0  9993,2 52349  53.2175 314.3915 0001694  75.1183 284.9997 15.08835279 78730,6917.895,95.438,540.932,538.588,0.0
52349.0,STARLINK-3819,PAYLOAD,2023-09-14 10:05:53,15.08812187,0.0001502,53.2173,312.0118,76.3295,283.7864,-0.00036134,-6.03e-05,0.0,0 STARLINK-3819,1 52349U 22045U   23257.42076220 -.00006030  00000-0 -36134-3 0  9999,2 52349  53.2173 312.0118 0001502  76.3295 283.7864 15.08812187 78815,6917.965,95.439,540.869,538.791,0.0
52349.0,STARLINK-3819,PAYLOAD,2023-09-14 13:16:40,15.08811681,0.0001562,53.2174,311.4176,79.2374,280.8793,-0.00030047,-5.063e-05,0.0,0 STARLINK-3819,1 52349U 22045U   23257.55324517 -.00005063  00000-0 -30047-3 0  9990,2 52349  53.2174 311.4176 0001562  79.2374 280.8793 15.08811681 78838,6917.967,95.439,540.913,538.751,0.0
52349.0,STARLINK-3819,PAYLOAD,2023-09-14 21:13:35,15.08827753,0.0001425,53.217,309.931,74.2533,285.8616,1.5656e-05,-3.9e-07,0.0,0 STARLINK-3819,1 52349U 22045U   23257.88444084 -.00000039  00000-0  15656-4 0  9995,2 52349  53.2170 309.9310 0001425  74.2533 285.8616 15.08827753 78887,6917.918,95.438,540.769,538.797,0.0
52349.0,STARLINK-3819,PAYLOAD,2023-09-15 03:35:08,15.08833238,0.0001137,53.217,308.7412,60.8903,299.2203,0.00012165,1.648e-05,0.0,0 STARLINK-3819,1 52349U 22045U   23258.14939949  .00001648  00000-0  12165-3 0  9991,2 52349  53.2170 308.7412 0001137  60.8903 299.2203 15.08833238 78920,6917.901,95.438,540.553,538.979,0.0
